1 44758U 19074AX  22365.16192325  .00013948  00000-0  95284-3 0  9992
2 44758  53.0549  54.4742 0001793  51.7712 308.3439 15.06422864172834
1 44758U 19074AX  22365.56000473  .00007666  00000-0  53272-3 0  9999
2 44758  53.0552  52.6876 0001869  56.9713 303.1456 15.06417883172891
1 44758U 19074AX  22365.82538484  .00003140  00000-0  22948-3 0  9995
2 44758  53.0553  51.4960 0001900  52.2507 307.8654 15.06420079172778
1 44758U 19074AX  23001.48884943  .00001600  00000-0  12630-3 0  9995
2 44758  53.0554  48.5173 0001910  50.7410 309.3748 15.06408207173039
1 44758U 19074AX  23001.55519594  .00004113  00000-0  29481-3 0  9994
2 44758  53.0554  48.2194 0001910  51.1199 308.9960 15.06410141172881
1 44758U 19074AX  23001.82058381  .00005485  00000-0  38680-3 0  9990
2 44758  53.0550  47.0279 0001967  50.2767 309.8395 15.06406945172925
1 44758U 19074AX  23002.15231960  .00002514  00000-0  18763-3 0  9993
2 44758  53.0555  45.5392 0001952  54.4140 305.7031 15.06398186173137
1 44758U 19074AX  23002.48405353  .00002837  00000-0  20928-3 0  9992
2 44758  53.0553  44.0500 0001875  53.7779 306.3383 15.06400127173028
1 44758U 19074AX  23002.81579138 -.00001825  00000-0 -10367-3 0  9996
2 44758  53.0556  42.5619 0001902  55.4178 304.6990 15.06388941173077
1 44758U 19074AX  23003.14752897 -.00001471  00000-0 -79905-4 0  9999
2 44758  53.0557  41.0714 0001869  53.3301 306.7860 15.06390606173288
1 44758U 19074AX  23003.47926952 -.00000615  00000-0 -22410-4 0  9998
2 44758  53.0554  39.5815 0001881  54.4860 305.6305 15.06384460173176
1 44758U 19074AX  23004.34177448  .00003379  00000-0  24566-3 0  9994
2 44758  53.0556  35.7104 0001898  50.5967 309.5190 15.06401054173309
1 44758U 19074AX  23004.34177448  .00003379  00000-0  24566-3 0  9994
2 44758  53.0556  35.7104 0001898  50.5967 309.5190 15.06401054173466
1 44758U 19074AX  23004.80620187  .00003517  00000-0  25486-3 0  9994
2 44758  53.0562  33.6246 0001943  53.2970 306.8198 15.06403448173379
1 44758U 19074AX  23005.46966302  .00007193  00000-0  50110-3 0  9995
2 44758  53.0558  30.6475 0001773  45.1444 314.9689 15.06416831173478
1 44758U 19074AX  23005.46966302  .00007193  00000-0  50110-3 0  9995
2 44758  53.0558  30.6475 0001773  45.1444 314.9689 15.06416831173636
1 44758U 19074AX  23006.46487132 -.00003909  00000-0 -24374-3 0  9991
2 44758  53.0551  26.1801 0001781  41.7476 318.3648 15.06390168173624
1 44758U 19074AX  23006.46487132 -.00003909  00000-0 -24374-3 0  9991
2 44758  53.0551  26.1801 0001781  41.7476 318.3648 15.06390168173781
1 44758U 19074AX  23007.06199544 -.00001340  00000-0 -71082-4 0  9991
2 44758  53.0558  23.4992 0001775  42.7655 317.3472 15.06393225173716
1 44758U 19074AX  23007.46007653  .00005793  00000-0  40749-3 0  9993
2 44758  53.0547  21.7127 0001818  43.1239 316.9892 15.06402132173939
1 44758U 19074AX  23007.72546843  .00005548  00000-0  39112-3 0  9991
2 44758  53.0538  20.5213 0001806  41.0909 319.0215 15.06393979173818
1 44758U 19074AX  23007.72546843  .00005548  00000-0  39112-3 0  9991
2 44758  53.0538  20.5213 0001806  41.0909 319.0215 15.06393979173975
1 44758U 19074AX  23008.05720873  .00000409  00000-0  46364-4 0  9994
2 44758  53.0547  19.0319 0001916  41.0475 319.0658 15.06382460174026
1 44758U 19074AX  23008.38894324  .00001368  00000-0  11074-3 0  9997
2 44758  53.0542  17.5432 0001986  51.4878 308.6289 15.06388181173916
1 44758U 19074AX  23008.72067549  .00003882  00000-0  27940-3 0  9998
2 44758  53.0550  16.0534 0001972  51.2091 308.9074 15.06395188173967
1 44758U 19074AX  23008.72067549  .00003882  00000-0  27940-3 0  9998
2 44758  53.0550  16.0534 0001972  51.2091 308.9074 15.06395188174126
1 44758U 19074AX  23009.05240856  .00002083  00000-0  15871-3 0  9991
2 44758  53.0574  14.5645 0001949  55.8431 304.2742 15.06399893174016
1 44758U 19074AX  23009.71587705  .00002495  00000-0  18633-3 0  9997
2 44758  53.0560  11.5856 0002054  53.7860 306.3319 15.06401891174119
1 44758U 19074AX  23010.24665388  .00002235  00000-0  16888-3 0  9993
2 44758  53.0558   9.2029 0001933  53.2742 306.8424 15.06397784174354
1 44758U 19074AX  23010.37934882  .00001677  00000-0  13148-3 0  9990
2 44758  53.0566   8.6075 0001914  52.3958 307.7205 15.06395418174219
1 44758U 19074AX  23010.71108199 -.00000037  00000-0  16415-4 0  9993
2 44758  53.0553   7.1184 0001943  52.1784 307.9381 15.06397648174266
1 44758U 19074AX  23011.24184660  .00004800  00000-0  34078-3 0  9994
2 44758  53.0557   4.7345 0001841  55.9217 304.1947 15.06416338174345
1 44758U 19074AX  23011.24184660  .00004800  00000-0  34078-3 0  9994
2 44758  53.0557   4.7345 0001841  55.9217 304.1947 15.06416338174503
1 44758U 19074AX  23011.83897285  .00000974  00000-0  84313-4 0  9999
2 44758  53.0555   2.0546 0001838  57.1131 303.0035 15.06400914174431
1 44758U 19074AX  23012.03800856  .00002997  00000-0  21998-3 0  9996
2 44758  53.0551   1.1616 0001907  55.7139 304.4031 15.06410236174624
1 44758U 19074AX  23012.76778986  .00009706  00000-0  66876-3 0  9993
2 44758  53.0558 357.8838 0001321  43.9031 316.2062 15.06445117174573
1 44758U 19074AX  23012.76778986  .00009706  00000-0  66876-3 0  9993
2 44758  53.0558 357.8838 0001321  43.9031 316.2062 15.06445117174731
1 44758U 19074AX  23012.96685205 -.00009876  00000-0 -64521-3 0  9991
2 44758  53.0554 356.9894 0001694  87.8885 272.2298 15.06388566174765
1 44758U 19074AX  23013.23224534 -.00012156  00000-0 -79904-3 0  9992
2 44758  53.0559 355.7990 0001598  80.8122 279.3047 15.06377308174643
1 44758U 19074AX  23013.23224534 -.00012156  00000-0 -79904-3 0  9992
2 44758  53.0559 355.7990 0001598  80.8122 279.3047 15.06377308174801
1 44758U 19074AX  23013.63033662 -.00005414  00000-0 -34506-3 0  9994
2 44758  53.0547 354.0120 0001599  78.8075 281.3093 15.06378502174700
1 44758U 19074AX  23014.09476395  .00002243  00000-0  16949-3 0  9995
2 44758  53.0554 351.9279 0001573  87.2265 272.8904 15.06382138174937
1 44758U 19074AX  23014.36015625  .00029047  00000-0  19610-2 0  9998
2 44758  53.0550 350.7375 0001495  92.4183 267.6978 15.06398732174971
1 44758U 19074AX  23014.75824577  .00003927  00000-0  28253-3 0  9998
2 44758  53.0564 348.9517 0001683 118.9015 241.2143 15.06376743175038
1 44758U 19074AX  23015.28902538  .00017344  00000-0  11804-2 0  9992
2 44758  53.0547 346.5681 0001770 109.0967 251.0214 15.06398608174951
1 44758U 19074AX  23015.28902538  .00017344  00000-0  11804-2 0  9992
2 44758  53.0547 346.5681 0001770 109.0967 251.0214 15.06398608175110
1 44758U 19074AX  23015.68710809  .00022978  00000-0  15564-2 0  9990
2 44758  53.0540 344.7808 0001512 115.2188 244.8958 15.06402266175012
1 44758U 19074AX  23015.68710809  .00022978  00000-0  15564-2 0  9990
2 44758  53.0540 344.7808 0001512 115.2188 244.8958 15.06402266175179
1 44758U 19074AX  23016.21787702  .00032703  00000-0  22023-2 0  9991
2 44758  53.0540 342.3985 0001496 117.4451 242.6690 15.06432228175098
1 44758U 19074AX  23016.21787702  .00032703  00000-0  22023-2 0  9991
2 44758  53.0540 342.3985 0001496 117.4451 242.6690 15.06432228175256
1 44758U 19074AX  23016.88135722  .00009488  00000-0  65519-3 0  9995
2 44758  53.0534 339.4195 0001857 106.5293 253.5900 15.06388810175198
1 44758U 19074AX  23017.14674925  .00000839  00000-0  75233-4 0  9994
2 44758  53.0537 338.2288 0001944  87.3228 272.7983 15.06385402175392
1 44758U 19074AX  23017.27944502 -.00001787  00000-0 -10114-3 0  9990
2 44758  53.0542 337.6298 0001692 110.7959 249.3212 15.06379829175250
1 44758U 19074AX  23017.61118276  .00002855  00000-0  21059-3 0  9994
2 44758  53.0550 336.1412 0001405 108.1727 251.9415 15.06384145175304
1 44758U 19074AX  23018.47368805  .00019439  00000-0  13195-2 0  9991
2 44758  53.0550 332.2678 0001480 111.1310 248.9837 15.06422075175433
1 44758U 19074AX  23018.47368805  .00019439  00000-0  13195-2 0  9991
2 44758  53.0550 332.2678 0001480 111.1310 248.9837 15.06422075175590
1 44758U 19074AX  23019.13714845  .00011950  00000-0  81913-3 0  9998
2 44758  53.0568 329.2934 0001386  99.7218 260.3927 15.06428009175695
1 44758U 19074AX  23019.26983723  .00017276  00000-0  11746-2 0  9998
2 44758  53.0563 328.6947 0001406  99.8084 260.3064 15.06440526175557
1 44758U 19074AX  23019.26983723  .00017276  00000-0  11746-2 0  9998
2 44758  53.0563 328.6947 0001406  99.8084 260.3064 15.06440526175715
1 44758U 19074AX  23020.13235747  .00006069  00000-0  42598-3 0  9990
2 44758  53.0550 324.8229 0002579  89.2958 270.8326 15.06402033175849
1 44758U 19074AX  23020.53044365  .00007254  00000-0  50553-3 0  9995
2 44758  53.0562 323.0375 0001351  74.3845 285.7293 15.06389947175905
1 44758U 19074AX  23021.06121757  .00016462  00000-0  11212-2 0  9994
2 44758  53.0561 320.6555 0001426  76.7843 283.3305 15.06409672175988
1 44758U 19074AX  23021.52564189  .00005486  00000-0  38671-3 0  9998
2 44758  53.0557 318.5690 0001548  79.2992 280.8172 15.06415661176055
1 44758U 19074AX  23022.18910518  .00008287  00000-0  57430-3 0  9998
2 44758  53.0558 315.5903 0001431  93.9013 266.2139 15.06416613176158
1 44758U 19074AX  23022.78623317 -.00004992  00000-0 -31664-3 0  9994
2 44758  53.0564 312.9109 0001035  91.0611 269.0497 15.06385478176249
1 44758U 19074AX  23023.05162273  .00022398  00000-0  15181-2 0  9997
2 44758  53.0548 311.7211 0001239  89.3001 270.8130 15.06392640176288
1 44758U 19074AX  23023.51605492  .00017796  00000-0  12108-2 0  9995
2 44758  53.0561 309.6350 0001318  83.4465 276.6674 15.06392895176357
1 44758U 19074AX  23024.97568314  .00009320  00000-0  64354-3 0  9992
2 44758  53.0542 303.0841 0001087  84.5667 275.5446 15.06410518176570
1 44758U 19074AX  23025.17472026  .00010345  00000-0  71206-3 0  9992
2 44758  53.0538 302.1887 0001216 108.4287 251.6834 15.06415144176445
1 44758U 19074AX  23026.10358030  .00013493  00000-0  92279-3 0  9994
2 44758  53.0552 298.0173 0001270  75.1374 284.9756 15.06407091176588
1 44758U 19074AX  23026.10358030  .00013493  00000-0  92279-3 0  9994
2 44758  53.0552 298.0173 0001270  75.1374 284.9756 15.06407091176746
